KUZGTU 1 (RS47S)        
1 57217U 23091AV  26191.31515923  .00008674  00000+0  29719-3 0  9990
2 57217  97.5056 256.0368 0010603  23.5069 336.6655 15.30400062167910
SONATE-2                
1 59112U 24043Q   26190.40279728  .00036930  00000+0  44852-3 0  9994
2 59112  97.5552 342.1927 0006780 123.5255 236.6650 15.60482785131352
MESAT1                  
1 60209U 24125G   26190.04570977  .00048984  00000+0  48115-3 0  9992
2 60209  97.2271  48.0631 0010930 131.4218 228.7983 15.65828598112989
OOV-CUBE (TUBSAT-30)    
1 60240U 24128F   26190.61158508  .00001327  00000+0  11249-3 0  9993
2 60240  61.9941 147.3745 0041807 138.6970 221.7297 15.02859618109486
COLIBRI-S (RS67S)       
1 61746U 24199M   26191.26527920  .00017221  00000+0  32260-3 0  9999
2 61746  97.2970  65.3413 0008348 179.6046 180.5213 15.48706277140987
HORS 3 (RS81S)          
1 61753U 24199U   26191.30857401  .00029151  00000+0  40943-3 0  9994
2 61753  97.2950  67.6333 0006537 171.1685 188.9687 15.56651631141152
HORS 4 (RS82S)          
1 61754U 24199V   26191.25911141  .00043937  00000+0  50272-3 0  9995
2 61754  97.2891  68.9430 0006466 162.2678 197.8807 15.62006271141247
SIT-2086                
1 61764U 24199AF  26191.31494170  .00030330  00000+0  45625-3 0  9990
2 61764  97.2908  68.0357 0007640 159.5321 200.6241 15.54763278138020
HYPERVIEW 1G (RS66S)    
1 61772U 24199AP  26191.25192098  .00187423  00000+0  83988-3 0  9996
2 61772  97.2813  72.2550 0008124 157.3092 202.8538 15.83626835138319
ALTAIR (RS65S)          
1 61779U 24199AW  26191.28553945  .00006051  00000+0  16673-3 0  9992
2 61779  97.3008  60.4875 0011511 215.2729 144.7755 15.37442533140663
ASRTU-1 (AO-123)        
1 61781U 24199AY  26191.29442927  .00005411  00000+0  15628-3 0  9991
2 61781  97.2978  59.7587 0012503 219.3866 140.6470 15.36007724137473
SAMSAT-IONOSPHERE (RS7*)
1 61784U 24199BB  26191.29991727  .00038446  00000+0  47908-3 0  9991
2 61784  97.2913  67.7618 0008625 176.2490 183.8833 15.59779038141165
RTU MIREA 1 (RS51S)     
1 61785U 24199BC  26191.26916072  .00053108  00000+0  56491-3 0  9998
2 61785  97.2901  68.6900 0008717 171.0337 189.1079 15.63822665138079
TEVEL2-4                
1 63213U 25052D   26191.19356909  .00014962  00000+0  43632-3 0  9992
2 63213  97.3878  87.6327 0003948  61.8463 298.3179 15.35449106 73641
TEVEL2-5                
1 63214U 25052E   26189.65245370  .00014062  00000+0  41324-3 0  9997
2 63214  97.3873  86.0291 0004130  66.2017 293.9660 15.35218873 73403
TEVEL2-6                
1 63215U 25052F   26190.77333909  .00013669  00000+0  40184-3 0  9994
2 63215  97.3877  87.1376 0003968  66.9512 293.2149 15.35215103 73575
TEVEL2-1                
1 63217U 25052H   26191.13644781  .00013953  00000+0  41737-3 0  9991
2 63217  97.3849  87.0975 0004544  70.7123 289.4612 15.34661443 73610
TEVEL2-3                
1 63218U 25052J   26191.13021186  .00014288  00000+0  42647-3 0  9993
2 63218  97.3855  87.1167 0004351  70.9758 289.1956 15.34723182 73611
TEVEL2-2                
1 63219U 25052K   26189.50651823  .00013021  00000+0  39012-3 0  9995
2 63219  97.3852  85.4689 0004704  73.9445 286.2316 15.34625790 73363
OTP-2                   
1 63235U 25052AB  26191.00871909  .00004897  00000+0  20317-3 0  9999
2 63235  97.3845  83.0996 0008285  85.2441 274.9742 15.24294167 73342
TEVEL2-9                
1 63237U 25052AD  26189.64245198  .00012819  00000+0  40918-3 0  9995
2 63237  97.3915  84.9331 0008135  74.7614 285.4527 15.32589963 73319
TEVEL2-7                
1 63238U 25052AE  26191.18957883  .00012809  00000+0  41238-3 0  9994
2 63238  97.3916  86.3844 0008113  70.6431 289.5687 15.32316838 73540
TEVEL2-8                
1 63239U 25052AF  26189.69605479  .00011621  00000+0  37502-3 0  9999
2 63239  97.3912  84.8694 0008175  75.3495 284.8653 15.32263765 73319
INNOSAT 16 (RS92S7)     
1 64878U 25155C   26191.28688029  .00004012  00000+0  16000-3 0  9999
2 64878  97.4574 158.3462 0012439 103.1013 257.1615 15.25705147 84194
GEOSCAN 6 (RS92S6)      
1 64879U 25155D   26191.26281774  .00007420  00000+0  25316-3 0  9990
2 64879  97.4563 159.9122 0010037  95.9842 264.2543 15.30592472 84294
GEOSCAN 1 (RS92S1)      
1 64880U 25155E   26191.25594564  .00008280  00000+0  27661-3 0  9995
2 64880  97.4559 160.0739 0009959  96.1643 264.0733 15.31234405 84302
239ALFEROV (RS61S)      
1 64881U 25155F   26191.25679369  .00011230  00000+0  34779-3 0  9990
2 64881  97.4558 160.7162 0009643  95.6625 264.5717 15.33579840 84341
GEOSCAN 2 (RS92S2)      
1 64890U 25155Q   26191.24565101  .00008144  00000+0  27002-3 0  9998
2 64890  97.4558 160.2250 0009216  86.0602 274.1693 15.31493048 84319
GEOSCAN 5 (RS92S5)      
1 64891U 25155R   26191.30633135  .00009702  00000+0  29805-3 0  9993
2 64891  97.4549 160.9124 0008662  99.6660 260.5561 15.33887925 84366
GEOSCAN 4 (RS92S4)      
1 64892U 25155S   26191.28812547  .00010543  00000+0  32195-3 0  9998
2 64892  97.4554 160.9493 0008610  99.7679 260.4537 15.34053808 84364
