OBJECT_NAME,OBJECT_ID,EPOCH,MEAN_MOTION,ECCENTRICITY,INCLINATION,RA_OF_ASC_NODE,ARG_OF_PERICENTER,MEAN_ANOMALY,EPHEMERIS_TYPE,CLASSIFICATION_TYPE,NORAD_CAT_ID,ELEMENT_SET_NO,REV_AT_EPOCH,BSTAR,MEAN_MOTION_DOT,MEAN_MOTION_DDOT
KUZGTU 1 (RS47S),2023-091AV,2026-07-10T07:33:49.757472,15.30400062,.00106039,97.5056,256.0368,23.5069,336.6655,0,U,57217,999,16791,.29718733E-3,.8674E-4,0
SONATE-2,2024-043Q,2026-07-09T09:40:01.684992,15.60482785,.00067809,97.5552,342.1927,123.5255,236.6650,0,U,59112,999,13135,.44852354E-3,.3693E-3,0
MESAT1,2024-125G,2026-07-09T01:05:49.324128,15.65828598,.00109304,97.2271,48.0631,131.4218,228.7983,0,U,60209,999,11298,.48114525E-3,.48984E-3,0
OOV-CUBE (TUBSAT-30),2024-128F,2026-07-09T14:40:40.950912,15.02859618,.00418074,61.9941,147.3745,138.6970,221.7297,0,U,60240,999,10948,.11248636E-3,.1327E-4,0
COLIBRI-S (RS67S),2024-199M,2026-07-10T06:22:00.122880,15.48706277,.00083485,97.2970,65.3413,179.6046,180.5213,0,U,61746,999,14098,.32259692E-3,.17221E-3,0
HORS 3 (RS81S),2024-199U,2026-07-10T07:24:20.794464,15.56651631,.00065373,97.2950,67.6333,171.1685,188.9687,0,U,61753,999,14115,.40942527E-3,.29151E-3,0
HORS 4 (RS82S),2024-199V,2026-07-10T06:13:07.225824,15.62006271,.00064668,97.2891,68.9430,162.2678,197.8807,0,U,61754,999,14124,.50271828E-3,.43937E-3,0
SIT-2086,2024-199AF,2026-07-10T07:33:30.962880,15.54763278,.00076406,97.2908,68.0357,159.5321,200.6241,0,U,61764,999,13802,.45624801E-3,.3033E-3,0
HYPERVIEW 1G (RS66S),2024-199AP,2026-07-10T06:02:45.972672,15.83626835,.00081248,97.2813,72.2550,157.3092,202.8538,0,U,61772,999,13831,.83987899E-3,.187423E-2,0
ALTAIR (RS65S),2024-199AW,2026-07-10T06:51:10.608480,15.37442533,.00115112,97.3008,60.4875,215.2729,144.7755,0,U,61779,999,14066,.16673375E-3,.6051E-4,0
ASRTU-1 (AO-123),2024-199AY,2026-07-10T07:03:58.688928,15.36007724,.00125035,97.2978,59.7587,219.3866,140.6470,0,U,61781,999,13747,.15628313E-3,.5411E-4,0
SAMSAT-IONOSPHERE (RS75S),2024-199BB,2026-07-10T07:11:52.852128,15.59779038,.00086253,97.2913,67.7618,176.2490,183.8833,0,U,61784,999,14116,.47908177E-3,.38446E-3,0
RTU MIREA 1 (RS51S),2024-199BC,2026-07-10T06:27:35.486208,15.63822665,.00087175,97.2901,68.6900,171.0337,189.1079,0,U,61785,999,13807,.56490947E-3,.53108E-3,0
TEVEL2-4,2025-052D,2026-07-10T04:38:44.369376,15.35449106,.00039482,97.3878,87.6327,61.8463,298.3179,0,U,63213,999,7364,.43632379E-3,.14962E-3,0
TEVEL2-5,2025-052E,2026-07-08T15:39:31.999680,15.35218873,.00041301,97.3873,86.0291,66.2017,293.9660,0,U,63214,999,7340,.41324257E-3,.14062E-3,0
TEVEL2-6,2025-052F,2026-07-09T18:33:36.497376,15.35215103,.00039681,97.3877,87.1376,66.9512,293.2149,0,U,63215,999,7357,.40183524E-3,.13669E-3,0
TEVEL2-1,2025-052H,2026-07-10T03:16:29.090784,15.34661443,.00045441,97.3849,87.0975,70.7123,289.4612,0,U,63217,999,7361,.41736513E-3,.13953E-3,0
TEVEL2-3,2025-052J,2026-07-10T03:07:30.304704,15.34723182,.0004351,97.3855,87.1167,70.9758,289.1956,0,U,63218,999,7361,.42646563E-3,.14288E-3,0
TEVEL2-2,2025-052K,2026-07-08T12:09:23.175072,15.34625790,.00047047,97.3852,85.4689,73.9445,286.2316,0,U,63219,999,7336,.39012445E-3,.13021E-3,0
OTP-2,2025-052AB,2026-07-10T00:12:33.329376,15.24294167,.00082851,97.3845,83.0996,85.2441,274.9742,0,U,63235,999,7334,.20316794E-3,.4897E-4,0
TEVEL2-9,2025-052AD,2026-07-08T15:25:07.851072,15.32589963,.0008135,97.3915,84.9331,74.7614,285.4527,0,U,63237,999,7331,.40917582E-3,.12819E-3,0
TEVEL2-7,2025-052AE,2026-07-10T04:32:59.610912,15.32316838,.00081131,97.3916,86.3844,70.6431,289.5687,0,U,63238,999,7354,.41238455E-3,.12809E-3,0
TEVEL2-8,2025-052AF,2026-07-08T16:42:19.133856,15.32263765,.00081757,97.3912,84.8694,75.3495,284.8653,0,U,63239,999,7331,.37502066E-3,.11621E-3,0
INNOSAT 16 (RS92S7),2025-155C,2026-07-10T06:53:06.457056,15.25705147,.00124392,97.4574,158.3462,103.1013,257.1615,0,U,64878,999,8419,.1600046E-3,.4012E-4,0
GEOSCAN 6 (RS92S6),2025-155D,2026-07-10T06:18:27.452736,15.30592472,.00100375,97.4563,159.9122,95.9842,264.2543,0,U,64879,999,8429,.25315994E-3,.742E-4,0
GEOSCAN 1 (RS92S1),2025-155E,2026-07-10T06:08:33.703296,15.31234405,.00099596,97.4559,160.0739,96.1643,264.0733,0,U,64880,999,8430,.27661118E-3,.828E-4,0
239ALFEROV (RS61S),2025-155F,2026-07-10T06:09:46.974816,15.33579840,.00096432,97.4558,160.7162,95.6625,264.5717,0,U,64881,999,8434,.34778779E-3,.1123E-3,0
GEOSCAN 2 (RS92S2),2025-155Q,2026-07-10T05:53:44.247264,15.31493048,.0009216,97.4558,160.2250,86.0602,274.1693,0,U,64890,999,8431,.27001664E-3,.8144E-4,0
GEOSCAN 5 (RS92S5),2025-155R,2026-07-10T07:21:07.028640,15.33887925,.00086624,97.4549,160.9124,99.6660,260.5561,0,U,64891,999,8436,.29805024E-3,.9702E-4,0
GEOSCAN 4 (RS92S4),2025-155S,2026-07-10T06:54:54.040608,15.34053808,.00086109,97.4554,160.9493,99.7679,260.4537,0,U,64892,999,8436,.32194919E-3,.10543E-3,0
